H1 CPF 01  gfz 2022 11 01 13  8052 terrasarx 
H2 0702601  6201 31698    2022 11 01 12 59 42 2022 11 06 00 00 42   120 1 1  0 0 0
H9
10 0 59886  23022.000000  0   -1090222.451   -783335.407  -6763050.860
10 0 59886  23142.000000  0   -1979290.615   -655459.448  -6572101.366
10 0 59886  23262.000000  0   -2831597.772   -500990.791  -6266482.276
10 0 59886  23382.000000  0   -3631912.929   -323376.614  -5851456.437
10 0 59886  23502.000000  0   -4365941.827   -126726.073  -5334185.628
10 0 59886  23622.000000  0   -5020583.978     84276.937  -4723617.529
10 0 59886  23742.000000  0   -5584171.105    304475.197  -4030343.025
10 0 59886  23862.000000  0   -6046685.067    528353.553  -3266423.281
10 0 59886  23982.000000  0   -6399947.923    750165.133  -2445187.298
10 0 59886  24102.000000  0   -6637779.368    964066.216  -1581003.062
10 0 59886  24222.000000  0   -6756118.258   1164256.028   -689026.733
10 0 59886  24342.000000  0   -6753103.452   1345118.274    215068.855
10 0 59886  24462.000000  0   -6629108.260   1501360.281   1115376.383
10 0 59886  24582.000000  0   -6386732.338   1628147.371   1996041.484
10 0 59886  24702.000000  0   -6030748.613   1721228.292   2841551.285
10 0 59886  24822.000000  0   -5568005.751   1777047.868   3637016.589
10 0 59886  24942.000000  0   -5007288.588   1792843.967   4368440.379
10 0 59886  25062.000000  0   -4359141.949   1766726.943   5022966.598
10 0 59886  25182.000000  0   -3635663.210   1697739.838   5589105.471
10 0 59886  25302.000000  0   -2850268.675   1585898.143   6056932.945
10 0 59886  25422.000000  0   -2017436.936   1432208.686   6418261.368
10 0 59886  25542.000000  0   -1152435.072   1238666.208   6666776.429
10 0 59886  25662.000000  0    -271035.594   1008228.596   6798140.097
10 0 59886  25782.000000  0     610771.017    744771.604   6810060.874
10 0 59886  25902.000000  0    1477065.261    453023.378   6702331.088
10 0 59886  26022.000000  0    2312284.611    138480.198   6476830.339
10 0 59886  26142.000000  0    3101502.392   -192695.986   6137495.929
10 0 59886  26262.000000  0    3830696.427   -533796.728   5690258.897
10 0 59886  26382.000000  0    4487001.526   -877700.700   5142945.633
10 0 59886  26502.000000  0    5058941.919  -1217020.056   4505147.334
10 0 59886  26622.000000  0    5536639.829  -1544255.978   3788057.051
10 0 59886  26742.000000  0    5911995.277  -1851961.039   3004276.374
10 0 59886  26862.000000  0    6178832.851  -2132904.743   2167594.159
10 0 59886  26982.000000  0    6333010.933  -2380237.876   1292741.401
10 0 59886  27102.000000  0    6372491.596  -2587651.651    395126.627
10 0 59886  27222.000000  0    6297367.829  -2749527.904   -509443.583
10 0 59886  27342.000000  0    6109848.046  -2861075.783  -1405052.043
10 0 59886  27462.000000  0    5814196.340  -2918451.852  -2275960.391
10 0 59886  27582.000000  0    5416632.065  -2918859.958  -3106892.150
10 0 59886  27702.000000  0    4925192.261  -2860628.887  -3883304.683
10 0 59886  27822.000000  0    4349560.733  -2743267.137  -4591644.229
10 0 59886  27942.000000  0    3700867.514  -2567492.998  -5219580.257
10 0 59886  28062.000000  0    2991464.076  -2335239.103  -5756212.681
10 0 59886  28182.000000  0    2234683.010  -2049633.110  -6192250.307
10 0 59886  28302.000000  0    1444585.599  -1714955.375  -6520162.235
10 0 59886  28422.000000  0     635699.443  -1336572.601  -6734297.571
10 0 59886  28542.000000  0    -177245.911   -920851.159  -6830972.158
10 0 59886  28662.000000  0    -979581.841   -475051.059  -6808524.453
10 0 59886  28782.000000  0   -1756959.025     -7202.008  -6667341.015
10 0 59886  28902.000000  0   -2495598.356    474037.859  -6409849.730
10 0 59886  29022.000000  0   -3182529.406    959537.517  -6040482.265
10 0 59886  29142.000000  0   -3805814.928   1439861.586  -5565606.807
10 0 59886  29262.000000  0   -4354759.721   1905449.198  -4993429.694
10 0 59886  29382.000000  0   -4820098.841   2346801.906  -4333865.310
10 0 59886  29502.000000  0   -5194160.859   2754676.048  -3598374.068
10 0 59886  29622.000000  0   -5471002.825   3120274.677  -2799772.294
10 0 59886  29742.000000  0   -5646515.240   3435436.872  -1952015.221
10 0 59886  29862.000000  0   -5718492.197   3692819.538  -1069954.953
10 0 59886  29982.000000  0   -5686664.195   3886065.818   -169077.848
10 0 59886  30102.000000  0   -5552692.864   4009956.762    734772.786
10 0 59886  30222.000000  0   -5320125.936   4060541.095   1625684.716
10 0 59886  30342.000000  0   -4994312.410   4035238.917   2487966.142
10 0 59886  30462.000000  0   -4582282.383   3932918.065   3306429.859
10 0 59886  30582.000000  0   -4092594.235   3753941.160   4066668.351
10 0 59886  30702.000000  0   -3535152.411   3500180.480   4755311.740
10 0 59886  30822.000000  0   -2921001.857   3175002.912   5360264.466
10 0 59886  30942.000000  0   -2262102.728   2783224.273   5870916.449
10 0 59886  31062.000000  0   -1571092.150   2331034.727   6278325.425
10 0 59886  31182.000000  0    -861037.009   1825896.727   6575367.417
10 0 59886  31302.000000  0    -145185.696   1276418.725   6756853.432
10 0 59886  31422.000000  0     563278.642    692206.620   6819615.270
10 0 59886  31542.000000  0    1251480.333     83695.509   6762556.860
10 0 59886  31662.000000  0    1907083.907   -538035.824   6586672.458
10 0 59886  31782.000000  0    2518514.540  -1161466.135   6295031.086
10 0 59886  31902.000000  0    3075163.050  -1774844.216   5892727.075
10 0 59886  32022.000000  0    3567572.999  -2366410.684   5386796.740
10 0 59886  32142.000000  0    3987605.195  -2924624.179   4786100.891
10 0 59886  32262.000000  0    4328577.190  -3438388.825   4101175.577
10 0 59886  32382.000000  0    4585375.018  -3897278.542   3344051.408
10 0 59886  32502.000000  0    4754534.964  -4291752.872   2528043.894
10 0 59886  32622.000000  0    4834292.609  -4613358.627   1667517.052
10 0 59886  32742.000000  0    4824596.659  -4854912.420    777625.972
10 0 59886  32862.000000  0    4727087.975  -5010660.408   -125956.730
10 0 59886  32982.000000  0    4545044.086  -5076409.917  -1027324.905
10 0 59886  33102.000000  0    4283291.415  -5049629.914  -1910628.106
10 0 59886  33222.000000  0    3948085.427  -4929517.387  -2760358.294
10 0 59886  33342.000000  0    3546963.643  -4717028.476  -3561627.901
10 0 59886  33462.000000  0    3088575.115  -4414874.171  -4300432.911
10 0 59886  33582.000000  0    2582491.603  -4027481.409  -4963897.041
10 0 59886  33702.000000  0    2039004.158  -3560919.745  -5540490.660
10 0 59886  33822.000000  0    1468912.419  -3022798.664  -6020221.094
10 0 59886  33942.000000  0     883310.302  -2422138.499  -6394795.669
10 0 59886  34062.000000  0     293370.992  -1769215.189  -6657754.956
10 0 59886  34182.000000  0    -289863.406  -1075382.244  -6804573.349
10 0 59886  34302.000000  0    -855683.410   -352874.369  -6832727.805
10 0 59886  34422.000000  0   -1393903.687    385404.099  -6741735.950
10 0 59886  34542.000000  0   -1895042.320   1126103.688  -6533162.835
10 0 59886  34662.000000  0   -2350483.813   1855665.173  -6210596.895
10 0 59886  34782.000000  0   -2752624.937   2560561.615  -5779595.319
10 0 59886  34902.000000  0   -3095001.993   3227545.724  -5247598.909
10 0 59886  35022.000000  0   -3372397.192   3843898.236  -4623815.578
10 0 59886  35142.000000  0   -3580922.464   4397672.937  -3919071.641
10 0 59886  35262.000000  0   -3718076.665   4877932.315  -3145632.155
10 0 59886  35382.000000  0   -3782775.434   5274968.665  -2316994.817
10 0 59886  35502.000000  0   -3775354.878   5580507.472  -1447659.218
10 0 59886  35622.000000  0   -3697546.507   5787888.034   -552873.160
10 0 59886  35742.000000  0   -3552422.629   5892213.348    351639.443
10 0 59886  35862.000000  0   -3344315.797   5890466.446   1249961.214
10 0 59886  35982.000000  0   -3078710.775   5781590.357   2126271.728
10 0 59886  36102.000000  0   -2762111.553   5566526.711   2965136.660
10 0 59886  36222.000000  0   -2401888.976   5248212.413   3751786.986
10 0 59886  36342.000000  0   -2006113.312   4831537.238   4472383.771
10 0 59886  36462.000000  0   -1583375.651   4323262.880   5114264.011
10 0 59886  36582.000000  0   -1142601.915   3731905.793   5666163.483
10 0 59886  36702.000000  0    -692864.555   3067585.807   6118410.969
10 0 59886  36822.000000  0    -243196.609   2341845.306   6463092.261
10 0 59886  36942.000000  0     197588.366   1567443.851   6694182.171
10 0 59886  37062.000000  0     621068.107    758130.559   6807644.738
10 0 59886  37182.000000  0    1019371.521    -71601.203   6801498.188
10 0 59886  37302.000000  0    1385323.874   -906772.117   6675848.002
10 0 59886  37422.000000  0    1712575.731  -1732187.036   6432885.817
10 0 59886  37542.000000  0    1995713.492  -2532710.760   6076854.082
10 0 59886  37662.000000  0    2230349.923  -3293546.834   5613977.044
10 0 59886  37782.000000  0    2413193.149  -4000513.801   5052357.165
10 0 59886  37902.000000  0    2542092.346  -4640313.289   4401838.851
10 0 59886  38022.000000  0    2616060.948  -5200786.580   3673841.210
10 0 59886  38142.000000  0    2635275.535  -5671153.615   2881159.915
10 0 59886  38262.000000  0    2601049.301  -6042229.295   2037742.251
10 0 59886  38382.000000  0    2515781.316  -6306609.539   1158437.930
10 0 59886  38502.000000  0    2382883.288  -6458823.818    258733.359
10 0 59886  38622.000000  0    2206685.511  -6495452.717   -645528.142
10 0 59886  38742.000000  0    1992323.096  -6415203.423  -1538435.928
10 0 59886  38862.000000  0    1745604.571  -6218940.686  -2404300.790
10 0 59886  38982.000000  0    1472868.109  -5909675.887  -3227938.136
10 0 59886  39102.000000  0    1180828.708  -5492509.212  -3994938.433
10 0 59886  39222.000000  0     876422.551  -4974534.028  -4691918.538
10 0 59886  39342.000000  0     566649.846  -4364704.107  -5306751.362
10 0 59886  39462.000000  0     258420.696  -3673667.922  -5828769.661
99
